IRIDIUM 68 [+]          
1 25291U 98021G   18042.27864719  .00000149  00000-0  46244-4 0  9996
2 25291  86.3979 124.1362 0002142  98.6436 261.5003 14.34225350 39274
IRIDIUM 69 [-]          
1 25319U 98026A   18042.36906623  .00000052  00000-0  10379-4 0  9996
2 25319  86.4033 145.1586 0002376 148.5345 211.5996 14.38714289 37420
IRIDIUM 71 [-]          
1 25320U 98026B   18042.36005105  .00000058  00000-0  12416-4 0  9993
2 25320  86.4012 140.9382 0000153  56.3810 303.7403 14.39132452 37862
IRIDIUM 70 [+]          
1 25342U 98032A   18042.30396705  .00000151  00000-0  46846-4 0  9995
2 25342  86.3983 124.3790 0002060  93.8968 266.2463 14.34217925 33375
IRIDIUM 72 [+]          
1 25343U 98032B   18042.29127348  .00000153  00000-0  47531-4 0  9993
2 25343  86.3978 123.9804 0002119  96.2842 263.8595 14.34218523 33378
IRIDIUM 73 [-]          
1 25344U 98032C   18042.55398014  .00000107  00000-0  22831-4 0  9998
2 25344  86.4413 101.8302 0002170  77.8251 282.3196 14.49094202 42216
IRIDIUM 75 [+]          
1 25346U 98032E   18042.29762432  .00000154  00000-0  47778-4 0  9999
2 25346  86.3981 124.2387 0002143  96.8059 263.3381 14.34218016 33946
IRIDIUM 3 [P]           
1 25431U 98048A   18039.68901606  .15407232 -13618-5  14806-3 0  9992
2 25431  86.3557 154.9265 0051746 279.7408  80.8369 16.45548534 19776
IRIDIUM 76 [+]          
1 25432U 98048B   18042.37091880  .00000133  00000-0  40428-4 0  9995
2 25432  86.4006 155.5274 0002156  92.4296 267.7147 14.34219011 19872
IRIDIUM 82 [-]          
1 25467U 98051A   18042.57405396  .00000574  00000-0  41509-4 0  9990
2 25467  86.3987 271.2802 0179709 257.7302 100.3752 14.89725456 22472
IRIDIUM 81 [+]          
1 25468U 98051B   18042.16837401  .00000105  00000-0  27956-4 0  9992
2 25468  86.4221 281.9221 0002280  84.4873 275.6586 14.38613050 17201
IRIDIUM 80 [+]          
1 25469U 98051C   18042.21643606  .00000112  00000-0  32884-4 0  9995
2 25469  86.3950 282.1579 0001733 104.0412  10.7016 14.34222989 17095
IRIDIUM 2 [-]           
1 25527U 98066A   18042.52746979  .00000954  00000-0  46160-4 0  9993
2 25527  85.5276 250.8902 0006912 298.2468  61.8074 15.17176034 54155
IRIDIUM 86 [+]          
1 25528U 98066B   18042.48887242 -.00000061  00000-0 -28909-4 0  9990
2 25528  86.3925 249.7142 0001003  76.2092 283.9216 14.34218421 13663
IRIDIUM 84 [+]          
1 25530U 98066D   18042.52058927 -.00000056  00000-0 -27159-4 0  9998
2 25530  86.3927 249.8697 0001982  83.9830 276.1592 14.34218618 11303
IRIDIUM 83 [+]          
1 25531U 98066E   18042.55231427 -.00000059  00000-0 -28290-4 0  9990
2 25531  86.3931 249.9919 0001993  85.6995 274.4428 14.34217238  8661
IRIDIUM 20 [+]          
1 25577U 98074A   18042.40258666  .00000143  00000-0  43957-4 0  9996
2 25577  86.4005 155.4326 0002044  97.1858 262.9570 14.34219679  2723
IRIDIUM 11 [+]          
1 25578U 98074B   18042.36989594  .00000126  00000-0  37835-4 0  9992
2 25578  86.4011 155.6591 0002654  88.9217 331.0310 14.34214130 11683
IRIDIUM 14 [+]          
1 25777U 99032A   18042.52595295  .00000157  00000-0  48850-4 0  9990
2 25777  86.3979 123.9709 0002042  95.4381 264.7048 14.34218366988982
IRIDIUM 21 [+]          
1 25778U 99032B   18042.28493854  .00000150  00000-0  46330-4 0  9996
2 25778  86.3978 124.0872 0002290  95.0123 265.1334 14.34218168982381
IRIDIUM 91 [+]          
1 27372U 02005A   18042.46300258  .00000079  00000-0  21160-4 0  9991
2 27372  86.3998 187.1690 0001901  82.8439 277.2973 14.34210735845928
IRIDIUM 90 [B]          
1 27373U 02005B   18042.50586949 -.00000049  00000-0 -20716-4 0  9995
2 27373  86.4441 250.0048 0001908  81.3560 278.7857 14.42948099845866
IRIDIUM 94 [+]          
1 27374U 02005C   18042.37628278  .00000140  00000-0  43012-4 0  9997
2 27374  86.4006 155.7789 0002115  80.7129 340.3038 14.34222592850230
IRIDIUM 95 [+]          
1 27375U 02005D   18042.43140165  .00000070  00000-0  17795-4 0  9990
2 27375  86.3994 187.1955 0002601  79.1335 281.0154 14.34212908845202
IRIDIUM 96 [P]          
1 27376U 02005E   18042.50161609  .00017270 -95168-6  19705-3 0  9993
2 27376  86.3810 216.0063 0317034 327.8912  30.3354 15.19288452850849
IRIDIUM 97 [+]          
1 27450U 02031A   18042.54256504 -.00000025  00000-0 -16091-4 0  9990
2 27450  86.3959 218.8395 0001872  84.6120 275.5290 14.34213351824534
IRIDIUM 98 [+]          
1 27451U 02031B   18042.20056580  .00000105  00000-0  30540-4 0  9998
2 27451  86.3943 282.2449 0001558  83.9273 276.2101 14.34223086825564
